{
  "type": "FeatureCollection",
  "features": [
    {
      "type": "Feature",
      "id": "busan-port",
      "properties": {
        "name": "부산 북항",
        "purpose": "해운: 컨테이너선 동향"
      },
      "geometry": {
        "type": "Polygon",
        "coordinates": [
          [
            [
              129.035,
              35.085
            ],
            [
              129.11,
              35.08
            ],
            [
              129.115,
              35.12
            ],
            [
              129.075,
              35.128
            ],
            [
              129.04,
              35.112
            ],
            [
              129.035,
              35.085
            ]
          ]
        ]
      }
    },
    {
      "type": "Feature",
      "id": "pyeongtaek-port",
      "properties": {
        "name": "평택당진항",
        "purpose": "해운: 자동차 수출 부두"
      },
      "geometry": {
        "type": "Polygon",
        "coordinates": [
          [
            [
              126.9,
              36.94
            ],
            [
              126.9,
              37.0
            ],
            [
              126.8,
              37.0
            ],
            [
              126.8,
              36.94
            ],
            [
              126.9,
              36.94
            ]
          ]
        ]
      }
    },
    {
      "type": "Feature",
      "id": "saemangeum",
      "properties": {
        "name": "새만금 매립지",
        "purpose": "건설: 매립과 공사 진척"
      },
      "geometry": {
        "type": "Polygon",
        "coordinates": [
          [
            [
              126.5,
              35.77
            ],
            [
              126.61,
              35.76
            ],
            [
              126.62,
              35.83
            ],
            [
              126.55,
              35.84
            ],
            [
              126.51,
              35.81
            ],
            [
              126.5,
              35.77
            ]
          ]
        ]
      }
    },
    {
      "type": "Feature",
      "id": "incheon-airport",
      "properties": {
        "name": "인천국제공항",
        "purpose": "건설: 활주로와 계류장"
      },
      "geometry": {
        "type": "Polygon",
        "coordinates": [
          [
            [
              126.5,
              37.43
            ],
            [
              126.5,
              37.49
            ],
            [
              126.4,
              37.49
            ],
            [
              126.4,
              37.43
            ],
            [
              126.5,
              37.43
            ]
          ]
        ]
      }
    },
    {
      "type": "Feature",
      "id": "gimje-paddy",
      "properties": {
        "name": "김제 평야",
        "purpose": "농업: 벼 작황"
      },
      "geometry": {
        "type": "Polygon",
        "coordinates": [
          [
            [
              126.95,
              35.76
            ],
            [
              126.95,
              35.84
            ],
            [
              126.82,
              35.84
            ],
            [
              126.82,
              35.76
            ],
            [
              126.95,
              35.76
            ]
          ]
        ]
      }
    },
    {
      "type": "Feature",
      "id": "taean-coast",
      "properties": {
        "name": "태안 해안",
        "purpose": "재해: 해안 침식"
      },
      "geometry": {
        "type": "Polygon",
        "coordinates": [
          [
            [
              126.1,
              36.7
            ],
            [
              126.1,
              36.8
            ],
            [
              125.95,
              36.8
            ],
            [
              125.95,
              36.7
            ],
            [
              126.1,
              36.7
            ]
          ]
        ]
      }
    },
    {
      "type": "Feature",
      "id": "seoul",
      "properties": {
        "name": "서울 도심",
        "purpose": "연구: 도시 열섬"
      },
      "geometry": {
        "type": "Polygon",
        "coordinates": [
          [
            [
              126.9,
              37.5
            ],
            [
              127.1,
              37.49
            ],
            [
              127.12,
              37.58
            ],
            [
              127.0,
              37.62
            ],
            [
              126.9,
              37.58
            ],
            [
              126.9,
              37.5
            ]
          ]
        ]
      }
    },
    {
      "type": "Feature",
      "id": "jeju-ports",
      "properties": {
        "name": "제주항과 서귀포항",
        "purpose": "해운: 여객선과 어선"
      },
      "geometry": {
        "type": "MultiPolygon",
        "coordinates": [
          [
            [
              [
                126.55,
                33.5
              ],
              [
                126.55,
                33.53
              ],
              [
                126.5,
                33.53
              ],
              [
                126.5,
                33.5
              ],
              [
                126.55,
                33.5
              ]
            ]
          ],
          [
            [
              [
                126.58,
                33.23
              ],
              [
                126.58,
                33.25
              ],
              [
                126.55,
                33.25
              ],
              [
                126.55,
                33.23
              ],
              [
                126.58,
                33.23
              ]
            ]
          ]
        ]
      }
    }
  ]
}